name,latitude,longitude,phase,country,type,parent,justification
Socotra Island,12.4634,53.823,Exploration,Yemen,location,,
Raja Ampat Islands,-0.2346,130.517,Exploration,Indonesia,location,,
Svalbard,78.2232,15.6469,Exploration,Norway,location,,
Tuvalu,-7.1095,177.6493,Exploration,Tuvalu,location,,
Faroe Islands,62,-6.79,Exploration,Denmark,location,,
Madagascar,-18.7669,46.8691,Exploration,Madagascar,location,,
Kamchatka Peninsula,56,160,Exploration,Russia,location,,
Antarctica,-82.8628,135,Exploration,Antarctica,location,,
Galapagos Islands,-0.9538,-90.9656,Exploration,Ecuador,location,,
Bhutan,27.5142,90.4336,Exploration,Bhutan,location,,
Namibia Desert,-24.6036,15.29,Exploration,Namibia,location,,
Papua New Guinea,-6.3149,143.9555,Exploration,Papua New Guinea,location,,
Patagonia,-49.3315,-72.8866,Exploration,Argentina/Chile,location,,
Yukon,64.2823,-135,Exploration,Canada,location,,
Chad,15.4542,18.7322,Exploration,Chad,location,,
Solomon Islands,-9.6457,160.1562,Exploration,Solomon Islands,location,,
Guyana,4.8604,-58.9302,Exploration,Guyana,location,,
Kyrgyzstan,41.2044,74.7661,Exploration,Kyrgyzstan,location,,
Sao Tome and Principe,0.1864,6.6131,Exploration,S�o Tom� and Pr�ncipe,location,,
Comoros,-11.875,43.8722,Exploration,Comoros,location,,
Vanuatu,-15.3767,166.9592,Exploration,Vanuatu,location,,
Timor-Leste,-8.8742,125.7275,Exploration,Timor-Leste,location,,
Djibouti,11.8251,42.5903,Exploration,Djibouti,location,,
Gabon,-0.8037,11.6094,Exploration,Gabon,location,,
Suriname,3.9193,-56.0278,Exploration,Suriname,location,,
Equatorial Guinea,1.6508,10.2679,Exploration,Equatorial Guinea,location,,
Turkmenistan,38.9697,59.5563,Exploration,Turkmenistan,location,,
Tajikistan,38.861,71.2761,Exploration,Tajikistan,location,,
Nauru,-0.5228,166.9315,Exploration,Nauru,location,,
Kiribati,1.8709,-157.3625,Exploration,Kiribati,location,,
Marshall Islands,7.1315,171.1845,Exploration,Marshall Islands,location,,
Palau,7.5149,134.5825,Exploration,Palau,location,,
Federated States of Micronesia,7.4256,150.5508,Exploration,Micronesia,location,,
Montserrat,16.7425,-62.1874,Exploration,Montserrat,location,,
Saint Helena,-15.965,-5.7089,Exploration,Saint Helena,location,,
Niue,-19.0544,-169.8672,Exploration,Niue,location,,
Tokelau,-9.1667,-171.8333,Exploration,Tokelau,location,,
Pitcairn Islands,-24.3763,-128.3242,Exploration,Pitcairn Islands,location,,
Tristan da Cunha,-37.1052,-12.2777,Exploration,Tristan da Cunha,location,,
Society Islands,-16.5,-151.75,Exploration,French Polynesia,location,,
Melanesia,-9.5,159.5,Exploration,Multiple Countries,location,,
Kerguelen Islands,-49.2804,69.3486,Exploration,French Southern Territories,location,,
Jan Mayen,71,-8,Exploration,Norway,location,,
Franz Josef Land,80,60,Exploration,Russia,location,,
Wrangel Island,71.247,-179.178,Exploration,Russia,location,,
Easter Island,-27.1127,-109.3497,Exploration,Chile,location,,
Kingdom of Mustang,29.2,83.9333,Exploration,Nepal,location,,
Lake Baikal,53.5587,108.165,Exploration,Russia,location,,
Atacama Desert,-24,-69,Exploration,Chile,location,,
Gobi Desert,42.5,103.5,Exploration,Mongolia/China,location,,
Kerguelen Plateau,-50,68,Exploration,Southern Indian Ocean,location,,
Chatham Islands,-43.9509,-176.5597,Exploration,New Zealand,location,,
Lord Howe Island,-31.558,159.082,Exploration,Australia,location,,
Socotra Archipelago,12.3695,53.8969,Exploration,Yemen,location,,
Bazaruto Archipelago,-21.635,35.4714,Exploration,Mozambique,location,,
Loango National Park,-2.33,9.585,Exploration,Gabon,location,,
Omo Valley,5.3333,36.5,Exploration,Ethiopia,location,,
Danakil Depression,14.2417,40.3,Exploration,Ethiopia,location,,
Gilf Kebir,23,25,Exploration,Egypt,location,,
Kaziranga National Park,26.5775,93.1711,Exploration,India,location,,
Hornstrandir Nature Reserve,66.3333,-22.3333,Exploration,Iceland,location,,
Skeleton Coast,-19,12.5,Exploration,Namibia,location,,
Makgadikgadi Pans,-20.5667,25.8333,Exploration,Botswana,location,,
Kaokoland,-18,13.5,Exploration,Namibia,location,,
Rwenzori Mountains,0.3792,29.8768,Exploration,Uganda,location,,
Simien Mountains,13.1833,38.0667,Exploration,Ethiopia,location,,
Tsingy de Bemaraha,-18.6667,44.7167,Exploration,Madagascar,location,,
Bungle Bungle Range,-17.4845,128.4977,Exploration,Australia,location,,
Daintree Rainforest,-16.1718,145.4185,Exploration,Australia,location,,
Fraser Island,-25.214,153.1325,Exploration,Australia,location,,
Lake Turkana,3.3704,36.1106,Exploration,Kenya,location,,
Kavango Zambezi,-17.8575,24.2699,Exploration,Multiple Countries,location,,
Chefchaouen,35.1718,-5.2697,Involvement,Morocco,location,,
Sapa,22.34,103.84,Involvement,Vietnam,location,,
Lake Inle,20.5666,96.9166,Involvement,Myanmar,location,,
Colca Canyon,-15.6333,-71.8333,Involvement,Peru,location,,
Jaisalmer,26.9157,70.9083,Involvement,India,location,,
Tofo Beach,-23.855,35.5342,Involvement,Mozambique,location,,
Salento,4.637,-75.57,Involvement,Colombia,location,,
Lamu Island,-2.2717,40.902,Involvement,Kenya,location,,
Phongsali,21.6833,102.1,Involvement,Laos,location,,
Goris,39.5122,46.3387,Involvement,Armenia,location,,
Matsumoto,36.2381,137.9718,Involvement,Japan,location,,
Jaffna,9.6615,80.0255,Involvement,Sri Lanka,location,,
Tofo,-23.855,35.5342,Involvement,Mozambique,location,,
Luang Namtha,20.95,101.4,Involvement,Laos,location,,
Pushkar,26.489,74.551,Involvement,India,location,,
Isla Holbox,21.5218,-87.3816,Involvement,Mexico,location,,
Pai,19.358,98.4367,Involvement,Thailand,location,,
Kotor,42.4247,18.7712,Involvement,Montenegro,location,,UNESCO Bay town. Cruise ship overcrowding severe. Resident concerns growing. Carrying capacity reached. Consolidation stage.
Kpalim�,6.9,0.6333,Involvement,Togo,location,,
Tobago,11.2333,-60.6667,Involvement,Trinidad and Tobago,location,,
Sumba Island,-9.6433,119.6536,Involvement,Indonesia,location,,
Bandipur,27.9319,84.4162,Involvement,Nepal,location,,
Bukit Lawang,3.534,98.139,Involvement,Indonesia,location,,
Uplistsikhe,41.9683,44.2033,Involvement,Georgia,location,,
Ba�os,-1.3965,-78.4247,Involvement,Ecuador,location,,
San Blas Islands,9.57,-78.82,Involvement,Panama,location,,
Fianarantsoa,-21.4333,47.0833,Involvement,Madagascar,location,,
Mae Hong Son,19.301,97.9685,Involvement,Thailand,location,,
Battambang,13.0957,103.2022,Involvement,Cambodia,location,,
Uyuni,-20.4603,-66.826,Involvement,Bolivia,location,,
Semuc Champey,15.5333,-89.9667,Involvement,Guatemala,location,,
Coron,-11.9983,120.2,Involvement,Philippines,location,,
Flores,8.64,121.7,Involvement,Indonesia,location,,
Lake Bled,46.3683,14.1146,Involvement,Slovenia,location,,Slovenia's most famous destination. Over 1M visitors annually. Overtourism concerns emerging. Visitor management systems in place. Consolidation stage.
Valparaiso,-33.0472,-71.6127,Involvement,Chile,location,,
Mostar,43.3438,17.8078,Involvement,Bosnia and Herzegovina,location,,
San Cristobal de las Casas,16.737,-92.6376,Involvement,Mexico,location,,
Chefchaouen,35.1718,-5.2697,Involvement,Morocco,location,,
Lijiang,26.8721,100.2255,Involvement,China,location,,
El Nido,11.1797,119.3915,Involvement,Philippines,location,,
Arequipa,-16.409,-71.5375,Involvement,Peru,location,,
Huacachina,-14.09,-75.7622,Involvement,Peru,location,,
Pokhara,28.2096,83.9856,Involvement,Nepal,location,,
Sihanoukville,10.6253,103.5234,Involvement,Cambodia,location,,
Rishikesh,30.0869,78.2676,Involvement,India,location,,
Huaraz,-9.5278,-77.5278,Involvement,Peru,location,,
Antigua Guatemala,14.556,-90.733,Involvement,Guatemala,location,,
Paracas,-13.854,-76.265,Involvement,Peru,location,,
Bocas del Toro,9.3359,-82.2475,Involvement,Panama,location,,
Mui Ne,10.9333,108.2833,Involvement,Vietnam,location,,
Kep,10.4833,104.3167,Involvement,Cambodia,location,,
Vang Vieng,18.9333,102.45,Involvement,Laos,location,,
Ninh Binh,20.2534,105.974,Involvement,Vietnam,location,,
Kep,10.4833,104.3167,Involvement,Cambodia,location,,
Bagan,21.1717,94.8585,Involvement,Myanmar,location,,
Hampi,15.335,76.462,Involvement,India,location,,
Si Phan Don,14.082,105.836,Involvement,Laos,location,,
Mawlamyine,16.4905,97.6289,Involvement,Myanmar,location,,
Dalat,11.9416,108.4383,Involvement,Vietnam,location,,
Minsk,53.9006,27.559,Involvement,Belarus,location,,
Kigali,-1.9441,30.0619,Involvement,Rwanda,location,,"Clean, modern capital. Conference tourism growing. International hotels present. Strong development. Development stage."
Essaouira,31.5085,-9.7595,Involvement,Morocco,location,,
Tam Coc,20.2511,105.9574,Involvement,Vietnam,location,,
Pushkar,26.489,74.551,Involvement,India,location,,
Otavalo,0.2333,-78.2667,Involvement,Ecuador,location,,
Varkala,8.7379,76.7116,Involvement,India,location,,
Dahab,28.5,34.5167,Involvement,Egypt,location,,
Da Nang,16.0544,108.2022,Development,Vietnam,location,,
Phu Quoc Island,10.289,103.984,Development,Vietnam,location,,
Zanzibar,-6.1659,39.198,Development,Tanzania,location,,
Krakow,50.0647,19.945,Development,Poland,location,,
Cape Verde,16.5388,-23.0418,Development,Cape Verde,location,,
Siem Reap,13.3633,103.8564,Development,Cambodia,location,,
Hoi An,15.8801,108.338,Development,Vietnam,location,,
Palawan,9.8432,118.7386,Development,Philippines,location,,
Dubrovnik,42.6507,18.0944,Development,Croatia,location,,
Reykjavik,64.1466,-21.9426,Development,Iceland,location,,Severe overtourism pressures. Airbnb density displacing residents. Tourism-oriented businesses replacing local shops. Government implementing visitor management. Classic Consolidation/Stagnation characteristics.
Tbilisi,41.7151,44.8271,Development,Georgia,location,,Capital with booming tourism. International hotels arriving. Nightlife and food tourism. Strong growth trajectory. Development stage.
Medellin,6.2442,-75.5812,Development,Colombia,location,,
Baku,40.4093,49.8671,Development,Azerbaijan,location,,
Jeju Island,33.4996,126.5312,Development,South Korea,location,,
Cartagena,10.391,-75.4794,Development,Colombia,location,,
Belgrade,44.7866,20.4489,Development,Serbia,location,,
Siargao Island,9.848,126.0459,Development,Philippines,location,,
Luang Prabang,19.8856,102.1347,Development,Laos,location,,
Nusa Penida,-8.7277,115.5444,Development,Indonesia,location,,
Phnom Penh,11.5564,104.9282,Development,Cambodia,location,,
Tangier,35.7595,-5.8339,Development,Morocco,location,,
Panama City,8.9824,-79.5199,Development,Panama,location,,
Tunis,36.8065,10.1815,Development,Tunisia,location,,
Colombo,6.9271,79.8612,Development,Sri Lanka,location,,
Fortaleza,-3.7319,-38.5267,Development,Brazil,location,,
Fort Kochi,9.9667,76.2333,Development,India,location,,
Muscat,23.588,58.3829,Development,Oman,location,,
Doha,25.2854,51.531,Development,Qatar,location,,
Bengaluru,12.9716,77.5946,Development,India,location,,
Chiang Mai,18.7883,98.9853,Development,Thailand,location,,
Kuala Lumpur,3.139,101.6869,Development,Malaysia,location,,
Porto,41.1579,-8.6291,Development,Portugal,location,,
Valencia,39.4699,-0.3763,Development,Spain,location,,
Warsaw,52.2297,21.0122,Development,Poland,location,,
Hanoi,21.0278,105.8342,Development,Vietnam,location,,
Santiago,-33.4489,-70.6693,Development,Chile,location,,
Lima,-12.0464,-77.0428,Development,Peru,location,,
Kathmandu,27.7172,85.324,Development,Nepal,location,,
Marrakech,31.6295,-7.9811,Development,Morocco,location,,
Cusco,-13.5319,-71.9675,Development,Peru,location,,
Budapest,47.4979,19.0402,Development,Hungary,location,,
Prague,50.0755,14.4378,Development,Czech Republic,location,,
Kuala Lumpur,3.139,101.6869,Development,Malaysia,location,,
Yangon,16.8409,96.1735,Development,Myanmar,location,,
Cape Town,-33.9249,18.4241,Development,South Africa,location,,
Tel Aviv,32.0853,34.7818,Development,Israel,location,,
Amman,31.9454,35.9284,Development,Jordan,location,,
Bucharest,44.4268,26.1025,Development,Romania,location,,
Sofia,42.6977,23.3219,Development,Bulgaria,location,,
Riga,56.9496,24.1052,Development,Latvia,location,,
Vilnius,54.6872,25.2797,Development,Lithuania,location,,
Lagos,6.5244,3.3792,Development,Nigeria,location,,
Nairobi,-1.2921,36.8219,Development,Kenya,location,,
Accra,5.6037,-0.187,Development,Ghana,location,,
Manila,14.5995,120.9842,Development,Philippines,location,,
Dakar,14.7167,-17.4677,Development,Senegal,location,,
Lusaka,-15.3875,28.3228,Development,Zambia,location,,
Kingston,17.9712,-76.7936,Development,Jamaica,location,,
Montevideo,-34.9011,-56.1645,Development,Uruguay,location,,
Panama City,8.9824,-79.5199,Development,Panama,location,,
Santo Domingo,18.4861,-69.9312,Development,Dominican Republic,location,,
Havana,23.1136,-82.3666,Development,Cuba,location,,
Phnom Penh,11.5564,104.9282,Development,Cambodia,location,,
Yangon,16.8409,96.1735,Development,Myanmar,location,,
Phuket,7.8804,98.3923,Development,Thailand,location,,
Danang,16.0544,108.2022,Development,Vietnam,location,,
Punta Cana,18.5601,-68.3725,Development,Dominican Republic,location,,
San Juan,18.4655,-66.1057,Development,Puerto Rico,location,,
Canc�n,21.1619,-86.8515,Development,Mexico,location,,
Thailand,15.87,100.9925,Consolidation,Thailand,location,,
Bali,-8.3405,115.092,Consolidation,Indonesia,location,,
Canc�n,21.1619,-86.8515,Consolidation,Mexico,location,,
Prague,50.0755,14.4378,Consolidation,Czech Republic,location,,
Barcelona,41.3851,2.1734,Consolidation,Spain,location,,
Las Vegas,36.1699,-115.1398,Consolidation,United States,location,,
Paris,48.8566,2.3522,Consolidation,France,location,,
London,51.5074,-0.1278,Consolidation,United Kingdom,location,,
Rome,41.9028,12.4964,Consolidation,Italy,location,,
New York City,40.7128,-74.006,Consolidation,United States,location,,
Orlando,28.5383,-81.3792,Consolidation,United States,location,,
Sydney,-33.8688,151.2093,Consolidation,Australia,location,,
Singapore,1.3521,103.8198,Consolidation,Singapore,location,,
Hong Kong,22.3193,114.1694,Consolidation,Hong Kong,location,,
Dubai,25.2048,55.2708,Consolidation,United Arab Emirates,location,,
Tokyo,35.6762,139.6503,Consolidation,Japan,location,,
Venice,45.4408,12.3155,Consolidation,Italy,location,,
Florence,43.7696,11.2558,Consolidation,Italy,location,,
Amsterdam,52.3676,4.9041,Consolidation,Netherlands,location,,
Vienna,48.2082,16.3738,Consolidation,Austria,location,,
Berlin,52.52,13.405,Consolidation,Germany,location,,
Miami,25.7617,-80.1918,Consolidation,United States,location,,
Los Angeles,34.0522,-118.2437,Consolidation,United States,location,,
San Francisco,37.7749,-122.4194,Consolidation,United States,location,,
Rio de Janeiro,-22.9068,-43.1729,Consolidation,Brazil,location,,
Mexico City,19.4326,-99.1332,Consolidation,Mexico,location,,
Toronto,43.6532,-79.3832,Consolidation,Canada,location,,
Vancouver,49.2827,-123.1207,Consolidation,Canada,location,,
Cairo,30.0444,31.2357,Consolidation,Egypt,location,,
Istanbul,41.0082,28.9784,Consolidation,Turkey,location,,
Athens,37.9838,23.7275,Consolidation,Greece,location,,
Lisbon,38.7223,-9.1393,Consolidation,Portugal,location,,
Seoul,37.5665,126.978,Consolidation,South Korea,location,,
Buenos Aires,-34.6037,-58.3816,Consolidation,Argentina,location,,
Johannesburg,-26.2041,28.0473,Consolidation,South Africa,location,,
Moscow,55.7558,37.6173,Consolidation,Russia,location,,
Beijing,39.9042,116.4074,Consolidation,China,location,,
Shanghai,31.2304,121.4737,Consolidation,China,location,,
Macau,22.1987,113.5439,Consolidation,Macau,location,,
Melbourne,-37.8136,144.9631,Consolidation,Australia,location,,
Auckland,-36.8485,174.7633,Consolidation,New Zealand,location,,
Edinburgh,55.9533,-3.1883,Consolidation,United Kingdom,location,,
Quebec City,46.8139,-71.208,Consolidation,Canada,location,,
Montreal,45.5017,-73.5673,Consolidation,Canada,location,,
Dublin,53.3498,-6.2603,Consolidation,Ireland,location,,
Milan,45.4642,9.19,Consolidation,Italy,location,,
Copenhagen,55.6761,12.5683,Consolidation,Denmark,location,,
Stockholm,59.3293,18.0686,Consolidation,Sweden,location,,
Oslo,59.9139,10.7522,Consolidation,Norway,location,,
Helsinki,60.1699,24.9384,Consolidation,Finland,location,,
Brussels,50.8503,4.3517,Consolidation,Belgium,location,,
Munich,48.1351,11.582,Consolidation,Germany,location,,
Frankfurt,50.1109,8.6821,Consolidation,Germany,location,,
Zurich,47.3769,8.5417,Consolidation,Switzerland,location,,
Geneva,46.2044,6.1432,Consolidation,Switzerland,location,,
Wellington,-41.2865,174.7762,Consolidation,New Zealand,location,,
Honolulu,21.3069,-157.8583,Consolidation,United States,location,,
Chicago,41.8781,-87.6298,Consolidation,United States,location,,
Seattle,47.6062,-122.3321,Consolidation,United States,location,,
Boston,42.3601,-71.0589,Consolidation,United States,location,,
New Orleans,29.9511,-90.0715,Consolidation,United States,location,,
San Diego,32.7157,-117.1611,Consolidation,United States,location,,
Washington D.C.,38.9072,-77.0369,Consolidation,United States,location,,
Philadelphia,39.9526,-75.1652,Consolidation,United States,location,,
Denver,39.7392,-104.9903,Consolidation,United States,location,,
Portland,45.5152,-122.6784,Consolidation,United States,location,,
Blackpool,53.8142,-3.0548,Stagnation,United Kingdom,location,,
Benidorm,38.5382,-0.13,Stagnation,Spain,location,,
Atlantic City,39.3643,-74.4229,Stagnation,United States,location,,
Niagara Falls,43.0962,-79.0377,Stagnation,United States/Canada,location,,
Acapulco,16.8531,-99.8237,Stagnation,Mexico,location,,
Varadero,23.1799,-81.189,Stagnation,Cuba,location,,
Sharm El Sheikh,27.9158,34.3299,Stagnation,Egypt,location,,
Goa,15.2993,74.124,Stagnation,India,location,,
Pattaya,12.9236,100.8825,Stagnation,Thailand,location,,
Margate,-30.863,30.3705,Stagnation,South Africa,location,,
Torremolinos,36.6204,-4.4998,Stagnation,Spain,location,,
Malindi,-3.2184,40.1164,Stagnation,Kenya,location,,
Cebu,10.3157,123.8854,Stagnation,Philippines,location,,
Bournemouth,50.7192,-1.8808,Stagnation,United Kingdom,location,,
Gold Coast,-28.0167,153.4,Stagnation,Australia,location,,
Brighton,50.8225,-0.1372,Stagnation,United Kingdom,location,,
Salou,41.077,1.1316,Stagnation,Spain,location,,
Daytona Beach,29.2108,-81.0228,Stagnation,United States,location,,
Benalm�dena,36.5955,-4.569,Stagnation,Spain,location,,
Forte dei Marmi,43.958,10.176,Stagnation,Italy,location,,
Sun City,-25.347,27.0939,Stagnation,South Africa,location,,
Hua Hin,12.5684,99.9577,Stagnation,Thailand,location,,
Vina del Mar,-33.0245,-71.5518,Stagnation,Chile,location,,
Puri,19.8135,85.8312,Stagnation,India,location,,
Blackpool,53.8142,-3.0548,Stagnation,United Kingdom,location,,
Lourdes,43.095,-0.0463,Stagnation,France,location,,
Agra,27.1767,78.0081,Stagnation,India,location,,
Rotorua,-38.1368,176.2497,Stagnation,New Zealand,location,,
Branson,36.6437,-93.2185,Stagnation,United States,location,,
Naples,40.8518,14.2681,Stagnation,Italy,location,,
Lake Tahoe,39.0968,-120.0324,Stagnation,United States,location,,
Mont Saint-Michel,48.6361,-1.5115,Stagnation,France,location,,
Alexandria,31.2001,29.9187,Stagnation,Egypt,location,,
Sousse,35.8256,10.6387,Stagnation,Tunisia,location,,
Puerto Vallarta,20.6534,-105.2253,Stagnation,Mexico,location,,
Bali,-8.3405,115.092,Stagnation,Indonesia,location,,
Vancouver,49.2827,-123.1207,Stagnation,Canada,location,,
Fiji,-17.7134,178.065,Stagnation,Fiji,location,,
Corfu,39.6243,19.9217,Stagnation,Greece,location,,
Maldives,3.2028,73.2207,Stagnation,Maldives,location,,"Welcomed 2.25M tourists in 2025, 9.8% increase. 183 luxury resorts with 45,289 beds. Tourism is primary economic driver. Mature market with global brand presence. Environmental carrying capacity concerns emerging."
Gozo,36.0443,14.2512,Stagnation,Malta,location,,Quieter sister island with growing tourism. Diving and rural tourism focus. Less developed than Malta. Development stage.
Majorca,39.6953,3.0176,Stagnation,Spain,location,,
Aruba,12.5211,-69.9683,Stagnation,Aruba,location,,
Seychelles,-4.6796,55.492,Stagnation,Seychelles,location,,
Cayman Islands,19.5135,-80.5669,Stagnation,Cayman Islands,location,,
Reunion,-21.1151,55.5364,Stagnation,France,location,,
Bermuda,32.3078,-64.7505,Stagnation,Bermuda,location,,
Barbados,13.1939,-59.5432,Stagnation,Barbados,location,,
Jersey,49.2144,-2.1313,Stagnation,Jersey,location,,
St. Tropez,43.2679,6.6407,Stagnation,France,location,,
Cannes,43.5528,7.0174,Stagnation,France,location,,
Nice,43.7102,7.262,Stagnation,France,location,,
Palma de Mallorca,39.5696,2.6502,Stagnation,Spain,location,,
Puerto Rico,18.2208,-66.5901,Stagnation,United States,location,,
St. Thomas,18.3381,-64.8941,Stagnation,United States Virgin Islands,location,,
Key West,24.5551,-81.78,Stagnation,United States,location,,
Biloxi,30.396,-88.8853,Stagnation,United States,location,,
Atlantic City,39.3643,-74.4229,Stagnation,United States,location,,
Galveston,29.3013,-94.7977,Stagnation,United States,location,,
Myrtle Beach,33.6891,-78.8867,Stagnation,United States,location,,
Varosha,35.11,33.9528,Decline,Cyprus,location,,
Dead Sea Resorts,31.559,35.4732,Decline,Israel/Jordan,location,,
Damascus,33.5138,36.2765,Decline,Syria,location,,
Agadez,16.9733,7.9911,Decline,Niger,location,,
Karachi,24.8607,67.0011,Decline,Pakistan,location,,
Kabul,34.5553,69.2075,Decline,Afghanistan,location,,
Mogadishu,2.0469,45.3182,Decline,Somalia,location,,
Detroit,42.3314,-83.0458,Decline,United States,location,,
Venice,45.4408,12.3155,Decline,Italy,location,,
Great Barrier Reef,-18.2871,147.6992,Decline,Australia,location,,
Pamukkale,37.9204,29.1194,Decline,Turkey,location,,
Ephesus,37.939,27.341,Decline,Turkey,location,,
Teotihuacan,19.6925,-98.8434,Decline,Mexico,location,,
Chichen Itza,20.6843,-88.5678,Decline,Mexico,location,,
Petra,30.3285,35.4444,Decline,Jordan,location,,
Angkor Wat,13.4125,103.867,Decline,Cambodia,location,,
Machu Picchu,-13.1631,-72.545,Decline,Peru,location,,
Timbuktu,16.7666,-3.0026,Decline,Mali,location,,
Kathmandu,27.7172,85.324,Decline,Nepal,location,,
Baghdad,33.3128,44.3615,Decline,Iraq,location,,
Bilbao,43.263,-2.935,Rejuvenation,Spain,location,,
Liverpool,53.4084,-2.9916,Rejuvenation,United Kingdom,location,,
Las Vegas,36.1699,-115.1398,Rejuvenation,United States,location,,
Macau,22.1987,113.5439,Rejuvenation,Macau,location,,
Dubai,25.2048,55.2708,Rejuvenation,United Arab Emirates,location,,
Rotterdam,51.9244,4.4777,Rejuvenation,Netherlands,location,,
Valencia,39.4699,-0.3763,Rejuvenation,Spain,location,,
Osaka,34.6937,135.5023,Rejuvenation,Japan,location,,
Glasgow,55.8642,-4.2518,Rejuvenation,United Kingdom,location,,
Detroit,42.3314,-83.0458,Rejuvenation,United States,location,,
Baltimore,39.2904,-76.6122,Rejuvenation,United States,location,,
Pittsburgh,40.4406,-79.9959,Rejuvenation,United States,location,,
Bilbao,43.263,-2.935,Rejuvenation,Spain,location,,
Portland,45.5152,-122.6784,Rejuvenation,United States,location,,
Seville,37.3891,-5.9845,Rejuvenation,Spain,location,,
Leeds,53.8008,-1.5491,Rejuvenation,United Kingdom,location,,
Manchester,53.4808,-2.2426,Rejuvenation,United Kingdom,location,,
Beirut,33.8938,35.5018,Rejuvenation,Lebanon,location,,
Wroc?aw,51.1079,17.0385,Rejuvenation,Poland,location,,
Krak�w,50.0647,19.945,Rejuvenation,Poland,location,,
Belgrade,44.7866,20.4489,Rejuvenation,Serbia,location,,
Belfast,54.5973,-5.9301,Rejuvenation,United Kingdom,location,,
Gda?sk,54.352,18.6466,Rejuvenation,Poland,location,,
Detroit,42.3314,-83.0458,Rejuvenation,United States,location,,
Marseille,43.2965,5.3698,Rejuvenation,France,location,,
Turin,45.0703,7.6869,Rejuvenation,Italy,location,,
Bogot�,4.711,-74.0721,Rejuvenation,Colombia,location,,
Lima,-12.0464,-77.0428,Rejuvenation,Peru,location,,
Johannesburg,-26.2041,28.0473,Rejuvenation,South Africa,location,,
Casablanca,33.5731,-7.5898,Rejuvenation,Morocco,location,,
Lisbon,38.7223,-9.1393,Rejuvenation,Portugal,location,,
Quebec City,46.8139,-71.208,Rejuvenation,Canada,location,,
Cardiff,51.4816,-3.1791,Rejuvenation,United Kingdom,location,,
Bilbao,43.263,-2.935,Rejuvenation,Spain,location,,
Busan,35.1796,129.0756,Rejuvenation,South Korea,location,,
Sydney,-33.8688,151.2093,Rejuvenation,Australia,location,,
Brisbane,-27.4698,153.0251,Rejuvenation,Australia,location,,
Melbourne,-37.8136,144.9631,Rejuvenation,Australia,location,,
Perth,-31.9505,115.8605,Rejuvenation,Australia,location,,
Adelaide,-34.9285,138.6007,Rejuvenation,Australia,location,,
Canberra,-35.2809,149.13,Rejuvenation,Australia,location,,
Hobart,-42.8821,147.3272,Rejuvenation,Australia,location,,
Darwin,-12.4634,130.8456,Rejuvenation,Australia,location,,
Alice Springs,-23.698,133.8807,Rejuvenation,Australia,location,,
Cairns,-16.9186,145.7781,Rejuvenation,Australia,location,,
Gold Coast,-28.0167,153.4,Rejuvenation,Australia,location,,
Newcastle,-32.9283,151.7817,Rejuvenation,Australia,location,,
Wollongong,-34.4278,150.8931,Rejuvenation,Australia,location,,
Geelong,-38.1499,144.3617,Rejuvenation,Australia,location,,
Townsville,-19.2589,146.8169,Rejuvenation,Australia,location,,
Albury,-36.0737,146.9135,Rejuvenation,Australia,location,,
Ballarat,-37.5622,143.8503,Rejuvenation,Australia,location,,
Bendigo,-36.757,144.2794,Rejuvenation,Australia,location,,
Bundaberg,-24.8662,152.3489,Rejuvenation,Australia,location,,
Burnie,-41.0528,145.904,Rejuvenation,Australia,location,,
Coffs Harbour,-30.2963,153.114,Rejuvenation,Australia,location,,
Devonport,-41.1806,146.3465,Rejuvenation,Australia,location,,
Gladstone,-23.842,151.2583,Rejuvenation,Australia,location,,
Lismore,-28.809,153.2773,Rejuvenation,Australia,location,,
Mackay,-21.1411,149.186,Rejuvenation,Australia,location,,
Rockhampton,-23.3779,150.51,Rejuvenation,Australia,location,,
Tamworth,-31.0833,150.9167,Rejuvenation,Australia,location,,
Toowoomba,-27.5606,151.9537,Rejuvenation,Australia,location,,
Traralgon,-38.195,146.541,Rejuvenation,Australia,location,,
Townsville,-19.2589,146.8169,Rejuvenation,Australia,location,,
Wagga Wagga,-35.108,147.3598,Rejuvenation,Australia,location,,
Port Macquarie,-31.431,152.9089,Rejuvenation,Australia,location,,
Busselton,-33.6525,115.3455,Rejuvenation,Australia,location,,
Bunbury,-33.3271,115.6414,Rejuvenation,Australia,location,,
Geraldton,-28.7782,114.614,Rejuvenation,Australia,location,,
Kalgoorlie,-30.7489,121.465,Rejuvenation,Australia,location,,
Karratha,-20.7377,116.846,Rejuvenation,Australia,location,,
Broome,-17.9614,122.2359,Rejuvenation,Australia,location,,
Albany,-35.0238,117.8814,Rejuvenation,Australia,location,,
Socotra Island,12.455,53.823,Exploration,Yemen,location,,
Faroe Islands,62,-6.79,Exploration,Denmark,location,,
Svalbard,78,16,Exploration,Norway,location,,
Kamchatka Peninsula,56,160,Exploration,Russia,location,,
Gal�pagos Islands,-0.9538,-90.9656,Exploration,Ecuador,location,,
Easter Island,-27.1127,-109.3497,Exploration,Chile,location,,
Antarctica,-75.25,-0.0715,Exploration,Antarctica,location,,
Madagascar Rainforests,-18.7669,46.8691,Exploration,Madagascar,location,,
Bhutan Himalayas,27.5142,90.4336,Exploration,Bhutan,location,,
Amazon Rainforest,-3.4653,-62.2159,Exploration,Brazil,location,,
Nunavut,70.2998,-83.1076,Exploration,Canada,location,,
Gobi Desert,42.7952,103.1669,Exploration,Mongolia,location,,
Danakil Depression,14.2417,40.3,Exploration,Ethiopia,location,,
Lord Howe Island,-31.558,159.083,Exploration,Australia,location,,
Simien Mountains,13.1833,38.0667,Exploration,Ethiopia,location,,
Mount Roraima,5.1412,-60.7638,Exploration,Venezuela,location,,
Kerguelen Islands,-49.2804,69.3486,Exploration,France,location,,
Mount Kailash,31.0675,81.3119,Exploration,China,location,,
Baffin Island,67.6488,-66.0832,Exploration,Canada,location,,
Wrangel Island,71.225,-179.5,Exploration,Russia,location,,
Cape York Peninsula,-12.5,142.5,Exploration,Australia,location,,
Darien Gap,7.9167,-77.6667,Exploration,Panama,location,,
Irian Jaya,-4.2699,138.0804,Exploration,Indonesia,location,,
Northern Patagonia Ice Field,-47,-73.5,Exploration,Chile,location,,
Tsingy de Bemaraha,-18.6667,44.6167,Exploration,Madagascar,location,,
Denali Wilderness,63.0692,-151.0064,Exploration,USA,location,,
Atacama Desert,-24.5,-69.25,Exploration,Chile,location,,
Congo Rainforest,-0.228,15.8277,Exploration,DR Congo,location,,
Namib Desert,-24.7018,15.3042,Exploration,Namibia,location,,
Mount Elgon,1.1333,34.5833,Exploration,Uganda,location,,
Lake Baikal,53.5587,108.165,Exploration,Russia,location,,
K2 Mountain,35.8825,76.5133,Exploration,Pakistan,location,,
Bromo Tengger Semeru,8,112.95,Exploration,Indonesia,location,,
Skeleton Coast,-19.2245,12.8026,Exploration,Namibia,location,,
Simpson Desert,-25,137,Exploration,Australia,location,,
Salawin National Park,17.9333,97.7167,Exploration,Thailand,location,,
Mount Kilimanjaro,-3.0674,37.3556,Exploration,Tanzania,location,,
Karijini National Park,-22.3553,118.7061,Exploration,Australia,location,,
Okavango Delta,-19,22,Exploration,Botswana,location,,
Great Bear Rainforest,52.4167,-127.5,Exploration,Canada,location,,
Borneo Rainforest,2.5,113,Exploration,Malaysia,location,,
Soconusco,15,-92.5,Exploration,Mexico,location,,
Daintree Rainforest,-16.1732,145.4185,Exploration,Australia,location,,
Altai Mountains,49,89,Exploration,Russia,location,,
Rock Islands,7.229,134.345,Exploration,Palau,location,,
Makgadikgadi Pans,-20.5,25.8333,Exploration,Botswana,location,,
Auyuittuq National Park,67.8,-65,Exploration,Canada,location,,
Papua Highlands,-6.0833,143.6667,Exploration,Papua New Guinea,location,,
Sulawesi Island,-1.4304,121.4456,Exploration,Indonesia,location,,
Great Barrier Reef,-18.2871,147.6992,Exploration,Australia,location,,
Angel Falls,5.9674,-62.5356,Exploration,Venezuela,location,,
Mount Kinabalu,6.075,116.5583,Exploration,Malaysia,location,,
Danube Delta,45.245,29.0421,Exploration,Romania,location,,
Iguazu Falls,-25.6953,-54.4367,Exploration,Argentina,location,,
Mount Everest Base Camp,28.0026,86.8528,Exploration,Nepal,location,,
Tierra del Fuego,-54.8019,-68.302,Exploration,Argentina,location,,
Gunung Mulu National Park,4.1276,114.9283,Exploration,Malaysia,location,,
Cape Horn,-55.9833,-67.2667,Exploration,Chile,location,,
Komodo Island,-8.55,119.45,Exploration,Indonesia,location,,
Bwindi Impenetrable Forest,-1.0556,29.7304,Exploration,Uganda,location,,
Lake Turkana,3.4654,36.0097,Exploration,Kenya,location,,
Isle of Skye,57.5359,-6.2263,Exploration,UK,location,,
Tasmania,-42.0409,146.8087,Exploration,Australia,location,,
Kavango-Zambezi,17.9,24.7,Exploration,Botswana,location,,
Salar de Uyuni,-20.1338,-67.4891,Exploration,Bolivia,location,,
Sumba Island,-9.642,119.6114,Exploration,Indonesia,location,,
Darien National Park,7.7081,-77.5287,Exploration,Panama,location,,
Kafue National Park,-15,25,Exploration,Zambia,location,,
Wulingyuan,29.3478,110.5292,Exploration,China,location,,
Torres del Paine,-51.2538,-72.336,Exploration,Chile,location,,
Sossusvlei,-24.7326,15.3024,Exploration,Namibia,location,,
Mashpi Rainforest,0.1598,-78.8701,Exploration,Ecuador,location,,
Seychelles,-4.6796,55.4915,Exploration,Seychelles,location,,
Spiti Valley,32.2468,78.0025,Exploration,India,location,,
Con Dao Islands,8.686,106.609,Exploration,Vietnam,location,,
Marble Caves,-46.6577,-72.6369,Exploration,Chile,location,,
Pantanal,-16.598,-56.0949,Exploration,Brazil,location,,
Northeast Greenland National Park,75,-40,Exploration,Greenland,location,,
Siberian Taiga,60,105,Exploration,Russia,location,,
Himalayan Foothills,27.7,85.3333,Exploration,Nepal,location,,
Bwabwata National Park,-18,21.5,Exploration,Namibia,location,,
Uluru,-25.3444,131.0369,Exploration,Australia,location,,
R�o Pl�tano Biosphere Reserve,15.7333,-84.8,Exploration,Honduras,location,,
Canaima National Park,5.1856,-61.6382,Exploration,Venezuela,location,,
Dja Faunal Reserve,3.4167,12.7167,Exploration,Cameroon,location,,
Cape Wrath,58.6234,-5.0097,Exploration,UK,location,,
Virunga Mountains,-1.3967,29.4658,Exploration,Rwanda,location,,
Gulf of Carpentaria,-15,139,Exploration,Australia,location,,
Mount Athos,40.1601,24.3268,Exploration,Greece,location,,
Dogon Country,14.45,-3.3333,Exploration,Mali,location,,
Bohemian Forest,48.9266,13.716,Exploration,Czech Republic,location,,
Kaokoland,-18,13,Exploration,Namibia,location,,
Fraser Island,-25.2167,153.1333,Exploration,Australia,location,,
Adirondack Mountains,44.1124,-73.9235,Exploration,USA,location,,
Pamir Mountains,38.5,73,Exploration,Tajikistan,location,,
Gunnison National Forest,38.7,-107,Exploration,USA,location,,
Mount Toubkal,31.0626,-7.9181,Exploration,Morocco,location,,
Drakensberg Mountains,-29.5,29.5,Exploration,South Africa,location,,
Dzungarian Alatau,45,82,Exploration,Kazakhstan,location,,
Nunavik,57.5,-75,Exploration,Canada,location,,
Greenland Ice Sheet,72,-40,Exploration,Greenland,location,,
Khangai Mountains,47,100,Exploration,Mongolia,location,,
Samar Island,11.8918,125.0155,Exploration,Philippines,location,,
Lake Balkhash,46.5,74,Exploration,Kazakhstan,location,,
Kaeng Krachan National Park,12.8833,99.4667,Exploration,Thailand,location,,
Transylvania,46.7704,23.5914,Exploration,Romania,location,,
Northern Territory,-19.4914,132.55,Exploration,Australia,location,,
Luang Prabang,19.8833,102.1333,Involvement,Laos,location,,
Havana,23.1136,-82.3666,Involvement,Cuba,location,,
Mandalay,21.9162,95.9559,Involvement,Myanmar,location,,
Addis Ababa,8.9806,38.7578,Involvement,Ethiopia,location,,
Kotor,42.4247,18.7712,Involvement,Montenegro,location,,UNESCO Bay town. Cruise ship overcrowding severe. Resident concerns growing. Carrying capacity reached. Consolidation stage.
Tbilisi,41.7151,44.8271,Involvement,Georgia,location,,Capital with booming tourism. International hotels arriving. Nightlife and food tourism. Strong growth trajectory. Development stage.
Bagan,21.1717,94.8585,Involvement,Myanmar,location,,
Gor�e Island,14.6681,-17.3983,Involvement,Senegal,location,,
Minsk,53.9045,27.5615,Involvement,Belarus,location,,
Lviv,49.8397,24.0297,Involvement,Ukraine,location,,
Gjirokast�r,40.0758,20.1389,Involvement,Albania,location,,
Valparaiso,-33.0472,-71.6127,Involvement,Chile,location,,
Chiang Rai,19.9106,99.84,Involvement,Thailand,location,,
Chisinau,47.0105,28.8638,Involvement,Moldova,location,,
Lhasa,29.652,91.1721,Involvement,China,location,,
Ulaanbaatar,47.8864,106.9057,Involvement,Mongolia,location,,
Yazd,31.8974,54.3569,Involvement,Iran,location,,
Muscat,23.588,58.3829,Involvement,Oman,location,,
Lom�,6.1725,1.2314,Involvement,Togo,location,,
Cotonou,6.3703,2.3912,Involvement,Benin,location,,
Maputo,-25.9692,32.5732,Involvement,Mozambique,location,,
Asmara,15.3229,38.9251,Involvement,Eritrea,location,,
Lilongwe,-13.9626,33.7741,Involvement,Malawi,location,,
Nouakchott,18.0735,-15.9582,Involvement,Mauritania,location,,
Paramaribo,5.852,-55.2038,Involvement,Suriname,location,,
San Salvador,13.6929,-89.2182,Involvement,El Salvador,location,,
Bishkek,42.8746,74.5698,Involvement,Kyrgyzstan,location,,
Khartoum,15.5007,32.5599,Involvement,Sudan,location,,
Belmopan,17.251,-88.759,Involvement,Belize,location,,
Skopje,41.9973,21.428,Involvement,North Macedonia,location,,
Podgorica,42.4304,19.2594,Involvement,Montenegro,location,,
Bucharest,44.4268,26.1025,Involvement,Romania,location,,
Zagreb,45.815,15.9819,Involvement,Croatia,location,,
Tirana,41.3275,19.8187,Involvement,Albania,location,,Capital saw 26% visitor growth in Dec 2024. 45% of tourists visit. International hotel brands arriving. Cultural tourism growing. Strong Development stage.
Sarajevo,43.8563,18.4131,Involvement,Bosnia and Herzegovina,location,,
Sofia,42.6977,23.3219,Involvement,Bulgaria,location,,
Tallinn,59.437,24.7536,Involvement,Estonia,location,,
Riga,56.9496,24.1052,Involvement,Latvia,location,,
Vilnius,54.6872,25.2797,Involvement,Lithuania,location,,
Podlasie,53.1667,23.1643,Involvement,Poland,location,,
Kigali,-1.9706,30.1044,Involvement,Rwanda,location,,"Clean, modern capital. Conference tourism growing. International hotels present. Strong development. Development stage."
Kampala,0.3476,32.5825,Involvement,Uganda,location,,
Port Moresby,-9.4438,147.1803,Involvement,Papua New Guinea,location,,
Phnom Penh,11.5564,104.9282,Involvement,Cambodia,location,,
Vientiane,17.9757,102.6331,Involvement,Laos,location,,
Dushanbe,38.5598,68.787,Involvement,Tajikistan,location,,
Islamabad,33.6844,73.0479,Involvement,Pakistan,location,,
Niamey,13.5116,2.1254,Involvement,Niger,location,,
Bamako,12.6392,-8.0029,Involvement,Mali,location,,
Djibouti,11.8251,42.5903,Involvement,Djibouti,location,,
Monrovia,6.3156,-10.8074,Involvement,Liberia,location,,
Freetown,8.4657,-13.2317,Involvement,Sierra Leone,location,,
Bissau,11.8817,-15.617,Involvement,Guinea-Bissau,location,,
Conakry,9.6412,-13.5784,Involvement,Guinea,location,,
Bujumbura,-3.3619,29.3599,Involvement,Burundi,location,,
Libreville,0.4162,9.4673,Involvement,Gabon,location,,
Windhoek,-22.5609,17.0658,Involvement,Namibia,location,,
Brazzaville,-4.2634,15.2429,Involvement,Republic of Congo,location,,
Vladivostok,43.1198,131.8869,Involvement,Russia,location,,
Irkutsk,52.2869,104.305,Involvement,Russia,location,,
Yakutsk,62.0355,129.6755,Involvement,Russia,location,,
Murmansk,68.9585,33.0827,Involvement,Russia,location,,
Arkhangelsk,64.5399,40.5168,Involvement,Russia,location,,
La Paz,-16.4897,-68.1193,Involvement,Bolivia,location,,
Sucre,-19.0196,-65.2619,Involvement,Bolivia,location,,
Quito,-0.1807,-78.4678,Involvement,Ecuador,location,,
Montevideo,-34.9011,-56.1645,Involvement,Uruguay,location,,
Asunci�n,-25.2637,-57.5759,Involvement,Paraguay,location,,
Managua,12.1364,-86.2514,Involvement,Nicaragua,location,,
San Jos�,9.9281,-84.0907,Involvement,Costa Rica,location,,
Tegucigalpa,14.0723,-87.1921,Involvement,Honduras,location,,
Belize City,17.5046,-88.1962,Involvement,Belize,location,,
Kingston,17.9712,-76.7936,Involvement,Jamaica,location,,
Port-au-Prince,18.5944,-72.3074,Involvement,Haiti,location,,
Santo Domingo,18.4861,-69.9312,Involvement,Dominican Republic,location,,
Reykjavik,64.1466,-21.9426,Involvement,Iceland,location,,Severe overtourism pressures. Airbnb density displacing residents. Tourism-oriented businesses replacing local shops. Government implementing visitor management. Classic Consolidation/Stagnation characteristics.
Nuuk,64.1835,-51.7216,Involvement,Greenland,location,,
Thimphu,27.4712,89.6339,Involvement,Bhutan,location,,
Male,4.1755,73.5093,Involvement,Maldives,location,,Capital city handles 74% of arrivals through main airport. Fully developed tourism infrastructure. Major hotel chains present. Gateway hub reaching capacity limits. Clear Consolidation characteristics.
Yerevan,40.1792,44.4991,Involvement,Armenia,location,,
Pyongyang,39.0392,125.7625,Involvement,North Korea,location,,
Port Louis,-20.1609,57.5012,Involvement,Mauritius,location,,
T�rshavn,62.0079,-6.79,Involvement,Faroe Islands,location,,
Pago Pago,-14.2756,-170.702,Involvement,American Samoa,location,,
Majuro,7.1164,171.1858,Involvement,Marshall Islands,location,,
Palikir,6.9147,158.161,Involvement,Micronesia,location,,
Funafuti,-8.5201,179.1981,Involvement,Tuvalu,location,,
Tarawa,-1.441,173.0376,Involvement,Kiribati,location,,
Honiara,-9.4456,159.9729,Involvement,Solomon Islands,location,,
Apia,-13.8314,-171.765,Involvement,Samoa,location,,
Ngerulmud,7.5,134.6243,Involvement,Palau,location,,
Port Vila,-17.7333,168.3273,Involvement,Vanuatu,location,,
Nuku'alofa,-21.1393,-175.2047,Involvement,Tonga,location,,
Suva,-18.1248,178.4501,Involvement,Fiji,location,,
Moroni,-11.7172,43.2473,Involvement,Comoros,location,,
Victoria,-4.6191,55.4513,Involvement,Seychelles,location,,
S�o Tom�,0.3302,6.7333,Involvement,S�o Tom� and Pr�ncipe,location,,
Asmara,15.3229,38.9251,Involvement,Eritrea,location,,
Port Moresby,-9.4438,147.1803,Involvement,Papua New Guinea,location,,
Nairobi,-1.2921,36.8219,Involvement,Kenya,location,,
Reykjavik,64.1466,-21.9426,Development,Iceland,location,,Severe overtourism pressures. Airbnb density displacing residents. Tourism-oriented businesses replacing local shops. Government implementing visitor management. Classic Consolidation/Stagnation characteristics.
Dubrovnik,42.6507,18.0944,Development,Croatia,location,,
Phuket,7.9519,98.3381,Development,Thailand,location,,
Marrakech,31.6295,-7.9811,Development,Morocco,location,,
Siem Reap,13.3671,103.8448,Development,Cambodia,location,,
Budapest,47.4979,19.0402,Development,Hungary,location,,
Prague,50.0755,14.4378,Development,Czech Republic,location,,
Krakow,50.0647,19.945,Development,Poland,location,,
Seoul,37.5665,126.978,Development,South Korea,location,,
Hanoi,21.0278,105.8342,Development,Vietnam,location,,
Lisbon,38.7223,-9.1393,Development,Portugal,location,,
Taipei,25.033,121.5654,Development,Taiwan,location,,
Santiago,-33.4489,-70.6693,Development,Chile,location,,
Cape Town,-33.9249,18.4241,Development,South Africa,location,,
Auckland,-36.8485,174.7633,Development,New Zealand,location,,
Quebec City,46.8139,-71.208,Development,Canada,location,,
Moscow,55.7558,37.6173,Development,Russia,location,,
Athens,37.9838,23.7275,Development,Greece,location,,
Seville,37.3891,-5.9845,Development,Spain,location,,
Buenos Aires,-34.6037,-58.3816,Development,Argentina,location,,
Beijing,39.9042,116.4074,Development,China,location,,
Macau,22.1987,113.5439,Development,Macau,location,,
Abu Dhabi,24.4539,54.3773,Development,UAE,location,,
Doha,25.2854,51.531,Development,Qatar,location,,
Colombo,6.9271,79.8612,Development,Sri Lanka,location,,
Muscat,23.588,58.3829,Development,Oman,location,,
Casablanca,33.5731,-7.5898,Development,Morocco,location,,
Kuala Lumpur,3.139,101.6869,Development,Malaysia,location,,
Manila,14.5995,120.9842,Development,Philippines,location,,
San Jose,37.3382,-121.8863,Development,USA,location,,
San Diego,32.7157,-117.1611,Development,USA,location,,
Porto,41.1579,-8.6291,Development,Portugal,location,,
Bruges,51.2093,3.2247,Development,Belgium,location,,
Bratislava,48.1486,17.1077,Development,Slovakia,location,,
Ho Chi Minh City,10.8231,106.6297,Development,Vietnam,location,,
Helsinki,60.1699,24.9384,Development,Finland,location,,
Mumbai,19.076,72.8777,Development,India,location,,
Jaipur,26.9124,75.7873,Development,India,location,,
Cairo,30.0444,31.2357,Development,Egypt,location,,
Amman,31.9454,35.9284,Development,Jordan,location,,
Istanbul,41.0082,28.9784,Development,Turkey,location,,
Gdansk,54.352,18.6466,Development,Poland,location,,
Sofia,42.6977,23.3219,Development,Bulgaria,location,,
St. Petersburg,59.9311,30.3609,Development,Russia,location,,
Busan,35.1796,129.0756,Development,South Korea,location,,
Tallinn,59.437,24.7536,Development,Estonia,location,,
Riga,56.9496,24.1052,Development,Latvia,location,,
Vilnius,54.6872,25.2797,Development,Lithuania,location,,
Kyoto,35.0116,135.7681,Development,Japan,location,,
Osaka,34.6937,135.5023,Development,Japan,location,,
Nagoya,35.1815,136.9066,Development,Japan,location,,
Jakarta,-6.2088,106.8456,Development,Indonesia,location,,
Yogyakarta,-7.7956,110.3695,Development,Indonesia,location,,
Lima,-12.0464,-77.0428,Development,Peru,location,,
Cusco,-13.5319,-71.9675,Development,Peru,location,,
La Paz,-16.4897,-68.1193,Development,Bolivia,location,,
Mexico City,19.4326,-99.1332,Development,Mexico,location,,
Guadalajara,20.6597,-103.3496,Development,Mexico,location,,
Monterrey,25.6866,-100.3161,Development,Mexico,location,,
Brisbane,-27.4698,153.0251,Development,Australia,location,,
Perth,-31.9505,115.8605,Development,Australia,location,,
Adelaide,-34.9285,138.6007,Development,Australia,location,,
Cairns,-16.9186,145.7781,Development,Australia,location,,
Rotorua,-38.1368,176.2497,Development,New Zealand,location,,
Queenstown,-45.0312,168.6626,Development,New Zealand,location,,
Guangzhou,23.1291,113.2644,Development,China,location,,
Shenzhen,22.5431,114.0579,Development,China,location,,
Chengdu,30.5728,104.0668,Development,China,location,,
Xi'an,34.3416,108.9398,Development,China,location,,
Hangzhou,30.2741,120.1551,Development,China,location,,
Suzhou,31.2989,120.5853,Development,China,location,,
Johannesburg,-26.2041,28.0473,Development,South Africa,location,,
Durban,-29.8587,31.0218,Development,South Africa,location,,
Nairobi,-1.2921,36.8219,Development,Kenya,location,,
Accra,5.6037,-0.187,Development,Ghana,location,,
Lagos,6.5244,3.3792,Development,Nigeria,location,,
Addis Ababa,8.9806,38.7578,Development,Ethiopia,location,,
Tel Aviv,32.0853,34.7818,Development,Israel,location,,
Jerusalem,31.7683,35.2137,Development,Israel,location,,
Cebu City,10.3157,123.8854,Development,Philippines,location,,
Davao City,7.1907,125.4553,Development,Philippines,location,,
Kigali,-1.9706,30.1044,Development,Rwanda,location,,"Clean, modern capital. Conference tourism growing. International hotels present. Strong development. Development stage."
Dar es Salaam,-6.7924,39.2083,Development,Tanzania,location,,
Nassau,25.0443,-77.3504,Development,Bahamas,location,,
Montego Bay,18.4762,-77.8939,Development,Jamaica,location,,
Santo Domingo,18.4861,-69.9312,Development,Dominican Republic,location,,
Panama City,8.9824,-79.5199,Development,Panama,location,,
San Juan,18.4655,-66.1057,Development,Puerto Rico,location,,
Bogot�,4.711,-74.0721,Development,Colombia,location,,
Medell�n,6.2442,-75.5812,Development,Colombia,location,,
Cartagena,10.391,-75.4794,Development,Colombia,location,,
Guayaquil,-2.17,-79.9224,Development,Ecuador,location,,
Quito,-0.1807,-78.4678,Development,Ecuador,location,,
San Jos�,9.9281,-84.0907,Development,Costa Rica,location,,
Managua,12.1364,-86.2514,Development,Nicaragua,location,,
Paris,48.8566,2.3522,Consolidation,France,location,,
London,51.5074,-0.1278,Consolidation,UK,location,,
Rome,41.9028,12.4964,Consolidation,Italy,location,,
New York City,40.7128,-74.006,Consolidation,USA,location,,
Barcelona,41.3851,2.1734,Consolidation,Spain,location,,
Las Vegas,36.1699,-115.1398,Consolidation,USA,location,,
Sydney,-33.8688,151.2093,Consolidation,Australia,location,,
Dubai,25.2048,55.2708,Consolidation,UAE,location,,
Bangkok,13.7563,100.5018,Consolidation,Thailand,location,,
Hong Kong,22.3193,114.1694,Consolidation,Hong Kong,location,,
Singapore,1.3521,103.8198,Consolidation,Singapore,location,,
Orlando,28.5383,-81.3792,Consolidation,USA,location,,
Cancun,21.1619,-86.8515,Consolidation,Mexico,location,,
Bali,-8.3405,115.092,Consolidation,Indonesia,location,,
Maldives,3.2028,73.2207,Consolidation,Maldives,location,,"Welcomed 2.25M tourists in 2025, 9.8% increase. 183 luxury resorts with 45,289 beds. Tourism is primary economic driver. Mature market with global brand presence. Environmental carrying capacity concerns emerging."
Phuket,7.9519,98.3381,Consolidation,Thailand,location,,
Punta Cana,18.5601,-68.3725,Consolidation,Dominican Republic,location,,
Honolulu,21.3069,-157.8583,Consolidation,USA,location,,
Amsterdam,52.3676,4.9041,Consolidation,Netherlands,location,,
Vienna,48.2082,16.3738,Consolidation,Austria,location,,
Venice,45.4408,12.3155,Consolidation,Italy,location,,
Munich,48.1351,11.582,Consolidation,Germany,location,,
Florence,43.7696,11.2558,Consolidation,Italy,location,,
Madrid,40.4168,-3.7038,Consolidation,Spain,location,,
Berlin,52.52,13.405,Consolidation,Germany,location,,
San Francisco,37.7749,-122.4194,Consolidation,USA,location,,
Los Angeles,34.0522,-118.2437,Consolidation,USA,location,,
Miami,25.7617,-80.1918,Consolidation,USA,location,,
Rio de Janeiro,-22.9068,-43.1729,Consolidation,Brazil,location,,
S�o Paulo,-23.5505,-46.6333,Consolidation,Brazil,location,,
Milan,45.4642,9.19,Consolidation,Italy,location,,
Toronto,43.6532,-79.3832,Consolidation,Canada,location,,
Vancouver,49.2827,-123.1207,Consolidation,Canada,location,,
Niagara Falls,43.0962,-79.0377,Consolidation,USA/Canada,location,,
Cairo,30.0444,31.2357,Consolidation,Egypt,location,,
Marrakech,31.6295,-7.9811,Consolidation,Morocco,location,,
Istanbul,41.0082,28.9784,Consolidation,Turkey,location,,
Athens,37.9838,23.7275,Consolidation,Greece,location,,
Santorini,36.3932,25.4615,Consolidation,Greece,location,,
Mykonos,37.4467,25.3289,Consolidation,Greece,location,,
Montego Bay,18.4762,-77.8939,Consolidation,Jamaica,location,,
Havana,23.1136,-82.3666,Consolidation,Cuba,location,,
Prague,50.0755,14.4378,Consolidation,Czech Republic,location,,
Budapest,47.4979,19.0402,Consolidation,Hungary,location,,
Krakow,50.0647,19.945,Consolidation,Poland,location,,
Warsaw,52.2297,21.0122,Consolidation,Poland,location,,
Edinburgh,55.9533,-3.1883,Consolidation,UK,location,,
Dublin,53.3498,-6.2603,Consolidation,Ireland,location,,
Brussels,50.8503,4.3517,Consolidation,Belgium,location,,
Copenhagen,55.6761,12.5683,Consolidation,Denmark,location,,
Stockholm,59.3293,18.0686,Consolidation,Sweden,location,,
Oslo,59.9139,10.7522,Consolidation,Norway,location,,
Helsinki,60.1699,24.9384,Consolidation,Finland,location,,
Tokyo,35.6762,139.6503,Consolidation,Japan,location,,
Kyoto,35.0116,135.7681,Consolidation,Japan,location,,
Osaka,34.6937,135.5023,Consolidation,Japan,location,,
Shanghai,31.2304,121.4737,Consolidation,China,location,,
Beijing,39.9042,116.4074,Consolidation,China,location,,
Seoul,37.5665,126.978,Consolidation,South Korea,location,,
Delhi,28.7041,77.1025,Consolidation,India,location,,
Mumbai,19.076,72.8777,Consolidation,India,location,,
Goa,15.2993,74.124,Consolidation,India,location,,
Melbourne,-37.8136,144.9631,Consolidation,Australia,location,,
Gold Coast,-28.0167,153.4,Consolidation,Australia,location,,
Queenstown,-45.0312,168.6626,Consolidation,New Zealand,location,,
Auckland,-36.8485,174.7633,Consolidation,New Zealand,location,,
Rotorua,-38.1368,176.2497,Consolidation,New Zealand,location,,
Cape Town,-33.9249,18.4241,Consolidation,South Africa,location,,
Johannesburg,-26.2041,28.0473,Consolidation,South Africa,location,,
Abu Dhabi,24.4539,54.3773,Consolidation,UAE,location,,
Doha,25.2854,51.531,Consolidation,Qatar,location,,
Singapore,1.3521,103.8198,Consolidation,Singapore,location,,
Kuala Lumpur,3.139,101.6869,Consolidation,Malaysia,location,,
Macau,22.1987,113.5439,Consolidation,Macau,location,,
Pattaya,12.9236,100.8825,Consolidation,Thailand,location,,
Chiang Mai,18.7883,98.9853,Consolidation,Thailand,location,,
Jakarta,-6.2088,106.8456,Consolidation,Indonesia,location,,
Ho Chi Minh City,10.8231,106.6297,Consolidation,Vietnam,location,,
Hanoi,21.0278,105.8342,Consolidation,Vietnam,location,,
Manila,14.5995,120.9842,Consolidation,Philippines,location,,
Boracay,11.9674,121.925,Consolidation,Philippines,location,,
Taipei,25.033,121.5654,Consolidation,Taiwan,location,,
Chicago,41.8781,-87.6298,Consolidation,USA,location,,
Boston,42.3601,-71.0589,Consolidation,USA,location,,
Washington D.C.,38.9072,-77.0369,Consolidation,USA,location,,
New Orleans,29.9511,-90.0715,Consolidation,USA,location,,
Venice,45.4408,12.3155,Stagnation,Italy,location,,
Pattaya,12.9236,100.8825,Stagnation,Thailand,location,,
Acapulco,16.8531,-99.8237,Stagnation,Mexico,location,,
Benidorm,38.5382,-0.13,Stagnation,Spain,location,,
Magaluf,39.5097,2.5327,Stagnation,Spain,location,,
Sharm El Sheikh,27.9158,34.3299,Stagnation,Egypt,location,,
Varadero,23.1539,-81.25,Stagnation,Cuba,location,,
Blackpool,53.8142,-3.05,Stagnation,UK,location,,
Atlantic City,39.3643,-74.4229,Stagnation,USA,location,,
Myrtle Beach,33.6891,-78.8867,Stagnation,USA,location,,
Goa,15.2993,74.124,Stagnation,India,location,,
Ayia Napa,34.9928,33.996,Stagnation,Cyprus,location,,
Sihanoukville,10.6253,103.5234,Stagnation,Cambodia,location,,
Mallorca,39.6953,3.0176,Stagnation,Spain,location,,
Niagara Falls,43.0962,-79.0377,Stagnation,USA/Canada,location,,
Macau,22.1987,113.5439,Stagnation,Macau,location,,
Vang Vieng,18.924,102.4476,Stagnation,Laos,location,,
Pokhara,28.2096,83.9856,Stagnation,Nepal,location,,
Kuta,-8.7235,115.1767,Stagnation,Indonesia,location,,
Agra,27.1767,78.0081,Stagnation,India,location,,
Lloret de Mar,41.7,2.85,Stagnation,Spain,location,,
Sousse,35.8256,10.636,Stagnation,Tunisia,location,,
Eilat,29.5577,34.9519,Stagnation,Israel,location,,
Surfers Paradise,-28.0027,153.429,Stagnation,Australia,location,,
Malia,35.2833,25.4667,Stagnation,Greece,location,,
Kavos,39.3869,20.0581,Stagnation,Greece,location,,
Sanya,18.2528,109.5119,Stagnation,China,location,,
Agadir,30.4278,-9.5981,Stagnation,Morocco,location,,
Palma de Mallorca,39.5696,2.6502,Stagnation,Spain,location,,
Manila,14.5995,120.9842,Stagnation,Philippines,location,,
Boracay,11.9674,121.925,Stagnation,Philippines,location,,
Jaipur,26.9124,75.7873,Stagnation,India,location,,
Varanasi,25.3176,82.9739,Stagnation,India,location,,
Angkor Wat,13.4125,103.8667,Stagnation,Cambodia,location,,
Giza,29.9765,31.1313,Stagnation,Egypt,location,,
Pompeii,40.746,14.4989,Stagnation,Italy,location,,
Stonehenge,51.1789,-1.8262,Stagnation,UK,location,,
Machu Picchu,-13.1631,-72.545,Stagnation,Peru,location,,
Cozumel,20.422,-86.9223,Stagnation,Mexico,location,,
Rotorua,-38.1368,176.2497,Stagnation,New Zealand,location,,
Orlando,28.5383,-81.3792,Stagnation,USA,location,,
Coney Island,40.5749,-73.985,Stagnation,USA,location,,
Lourdes,43.095,-0.0463,Stagnation,France,location,,
Venezia Lido,45.409,12.3727,Stagnation,Italy,location,,
Ocho Rios,18.4074,-77.1031,Stagnation,Jamaica,location,,
Sorrento,40.6263,14.3758,Stagnation,Italy,location,,
Key West,24.5551,-81.78,Stagnation,USA,location,,
Branson,36.6437,-93.2185,Stagnation,USA,location,,
Brighton,50.8225,-0.1372,Stagnation,UK,location,,
Sochi,43.6028,39.7342,Stagnation,Russia,location,,
Atlantic City,39.3643,-74.4229,Stagnation,USA,location,,
Darjeeling,27.036,88.2627,Stagnation,India,location,,
Montego Bay,18.4762,-77.8939,Stagnation,Jamaica,location,,
Shenzhen,22.5431,114.0579,Stagnation,China,location,,
Cairo,30.0444,31.2357,Stagnation,Egypt,location,,
Johannesburg,-26.2041,28.0473,Stagnation,South Africa,location,,
Kuala Lumpur,3.139,101.6869,Stagnation,Malaysia,location,,
Ho Chi Minh City,10.8231,106.6297,Stagnation,Vietnam,location,,
Nassau,25.0443,-77.3504,Stagnation,Bahamas,location,,
Antalya,36.8969,30.7133,Stagnation,Turkey,location,,
Salou,41.077,1.1316,Stagnation,Spain,location,,
Batumi,41.6168,41.6367,Stagnation,Georgia,location,,Black Sea resort city. Major casino tourism. High-rise development. Beach tourism dominant. Development stage.
Ibiza,38.9089,1.4328,Stagnation,Spain,location,,
Hvar,43.1729,16.4424,Stagnation,Croatia,location,,
Bournemouth,50.7192,-1.8808,Stagnation,UK,location,,
Split,43.5081,16.4402,Stagnation,Croatia,location,,
Kotor,42.4247,18.7712,Stagnation,Montenegro,location,,UNESCO Bay town. Cruise ship overcrowding severe. Resident concerns growing. Carrying capacity reached. Consolidation stage.
Nessebar,42.66,27.7333,Stagnation,Bulgaria,location,,
Golden Sands,43.2851,28.0418,Stagnation,Bulgaria,location,,
Paphos,34.772,32.4297,Stagnation,Cyprus,location,,
Costa del Sol,36.7202,-4.4203,Stagnation,Spain,location,,
Banjul,13.4549,-16.579,Stagnation,Gambia,location,,
Lima,-12.0464,-77.0428,Stagnation,Peru,location,,
Rio de Janeiro,-22.9068,-43.1729,Stagnation,Brazil,location,,
Copacabana,-22.9711,-43.1822,Stagnation,Brazil,location,,
Phuket,7.9519,98.3381,Stagnation,Thailand,location,,
Chiang Mai,18.7883,98.9853,Stagnation,Thailand,location,,
Hue,16.4637,107.5909,Stagnation,Vietnam,location,,
Mui Ne,10.9324,108.2416,Stagnation,Vietnam,location,,
Boca Chica,18.45,-69.6,Stagnation,Dominican Republic,location,,
Puerto Plata,19.7969,-70.6948,Stagnation,Dominican Republic,location,,
Cartagena,10.391,-75.4794,Stagnation,Colombia,location,,
San Andr�s Island,12.5847,-81.7006,Stagnation,Colombia,location,,
Batangas,13.7565,121.0583,Stagnation,Philippines,location,,
Port Dickson,2.5225,101.7963,Stagnation,Malaysia,location,,
Puri,19.8135,85.8312,Stagnation,India,location,,
Kovalam,8.4006,76.9789,Stagnation,India,location,,
Manali,32.2396,77.1887,Stagnation,India,location,,
Kangaroo Island,-35.7752,137.0768,Stagnation,Australia,location,,
Alice Springs,-23.698,133.8807,Stagnation,Australia,location,,
Hanoi,21.0278,105.8342,Stagnation,Vietnam,location,,
Halong Bay,20.9101,107.1839,Stagnation,Vietnam,location,,
Mount Everest Base Camp,28.0026,86.8528,Stagnation,Nepal,location,,
Lake Louise,51.4254,-116.1773,Stagnation,Canada,location,,
Banff,51.1784,-115.5708,Stagnation,Canada,location,,
Whistler,50.1163,-122.9574,Stagnation,Canada,location,,
Cannes,43.5528,7.0174,Stagnation,France,location,,
Nice,43.7102,7.262,Stagnation,France,location,,
Atlantic City,39.3643,-74.4229,Stagnation,USA,location,,
Gatlinburg,35.7143,-83.5102,Stagnation,USA,location,,
Branson,36.6437,-93.2185,Stagnation,USA,location,,
Luray Caverns,38.6635,-78.483,Stagnation,USA,location,,
Williamsburg,37.2707,-76.7075,Stagnation,USA,location,,
Pigeon Forge,35.7884,-83.5543,Stagnation,USA,location,,
Ocean City,38.3365,-75.0849,Stagnation,USA,location,,
Galveston,29.3013,-94.7977,Stagnation,USA,location,,
Myrtle Beach,33.6891,-78.8867,Stagnation,USA,location,,
Atlantic City,39.3643,-74.4229,Stagnation,USA,location,,
Bilbao,43.263,-2.935,Rejuvenation,Spain,location,,
Detroit,42.3314,-83.0458,Rejuvenation,USA,location,,
Glasgow,55.8642,-4.2518,Rejuvenation,UK,location,,
Liverpool,53.4084,-2.9916,Rejuvenation,UK,location,,
Cape Town,-33.9249,18.4241,Rejuvenation,South Africa,location,,
Valencia,39.4699,-0.3763,Rejuvenation,Spain,location,,
Porto,41.1579,-8.6291,Rejuvenation,Portugal,location,,
Leeds,53.8008,-1.5491,Rejuvenation,UK,location,,
Manchester,53.4808,-2.2426,Rejuvenation,UK,location,,
Dublin,53.3498,-6.2603,Rejuvenation,Ireland,location,,
Lisbon,38.7223,-9.1393,Rejuvenation,Portugal,location,,
Sheffield,53.3811,-1.4701,Rejuvenation,UK,location,,
Essen,51.4556,7.0116,Rejuvenation,Germany,location,,
Leipzig,51.3397,12.3731,Rejuvenation,Germany,location,,
Warsaw,52.2297,21.0122,Rejuvenation,Poland,location,,
Krakow,50.0647,19.945,Rejuvenation,Poland,location,,
Tallinn,59.437,24.7536,Rejuvenation,Estonia,location,,
Riga,56.9496,24.1052,Rejuvenation,Latvia,location,,
Vilnius,54.6872,25.2797,Rejuvenation,Lithuania,location,,
Belfast,54.5973,-5.9301,Rejuvenation,UK,location,,
Baltimore,39.2904,-76.6122,Rejuvenation,USA,location,,
Cleveland,41.4993,-81.6944,Rejuvenation,USA,location,,
Pittsburgh,40.4406,-79.9959,Rejuvenation,USA,location,,
Rotterdam,51.9244,4.4777,Rejuvenation,Netherlands,location,,
Hamburg,53.5511,9.9937,Rejuvenation,Germany,location,,
Osaka,34.6937,135.5023,Rejuvenation,Japan,location,,
Nagoya,35.1815,136.9066,Rejuvenation,Japan,location,,
Fukuoka,33.5904,130.4017,Rejuvenation,Japan,location,,
Hiroshima,34.3853,132.4553,Rejuvenation,Japan,location,,
Sendai,38.2682,140.8694,Rejuvenation,Japan,location,,
Belfast,54.5973,-5.9301,Rejuvenation,UK,location,,
Lyon,45.764,4.8357,Rejuvenation,France,location,,
Marseille,43.2965,5.3698,Rejuvenation,France,location,,
Bordeaux,44.8378,-0.5792,Rejuvenation,France,location,,
Toulouse,43.6047,1.4442,Rejuvenation,France,location,,
Genoa,44.4056,8.9463,Rejuvenation,Italy,location,,
Turin,45.0703,7.6869,Rejuvenation,Italy,location,,
Naples,40.8518,14.2681,Rejuvenation,Italy,location,,
Palermo,38.1157,13.3615,Rejuvenation,Italy,location,,
Bilbao,43.263,-2.935,Rejuvenation,Spain,location,,
Seville,37.3891,-5.9845,Rejuvenation,Spain,location,,
Granada,37.1773,-3.5986,Rejuvenation,Spain,location,,
Cordoba,37.8882,-4.7794,Rejuvenation,Spain,location,,
Santiago de Compostela,42.8782,-8.5448,Rejuvenation,Spain,location,,
Valparaiso,-33.0472,-71.6127,Rejuvenation,Chile,location,,
Lima,-12.0464,-77.0428,Rejuvenation,Peru,location,,
Quito,-0.1807,-78.4678,Rejuvenation,Ecuador,location,,
Bogot�,4.711,-74.0721,Rejuvenation,Colombia,location,,
Medell�n,6.2442,-75.5812,Rejuvenation,Colombia,location,,
Guayaquil,-2.17,-79.9224,Rejuvenation,Ecuador,location,,
S�o Paulo,-23.5505,-46.6333,Rejuvenation,Brazil,location,,
Bras�lia,-15.7939,-47.8828,Rejuvenation,Brazil,location,,
Addis Ababa,8.9806,38.7578,Rejuvenation,Ethiopia,location,,
Kigali,-1.9706,30.1044,Rejuvenation,Rwanda,location,,"Clean, modern capital. Conference tourism growing. International hotels present. Strong development. Development stage."
Nairobi,-1.2921,36.8219,Rejuvenation,Kenya,location,,
Dar es Salaam,-6.7924,39.2083,Rejuvenation,Tanzania,location,,
Kampala,0.3476,32.5825,Rejuvenation,Uganda,location,,
Hanoi,21.0278,105.8342,Rejuvenation,Vietnam,location,,
Ho Chi Minh City,10.8231,106.6297,Rejuvenation,Vietnam,location,,
Phnom Penh,11.5564,104.9282,Rejuvenation,Cambodia,location,,
Yangon,16.8409,96.1735,Rejuvenation,Myanmar,location,,
Thimphu,27.4712,89.6339,Rejuvenation,Bhutan,location,,
Colombo,6.9271,79.8612,Rejuvenation,Sri Lanka,location,,
Kathmandu,27.7172,85.324,Rejuvenation,Nepal,location,,
Amman,31.9454,35.9284,Rejuvenation,Jordan,location,,
Beirut,33.8938,35.5018,Rejuvenation,Lebanon,location,,
Istanbul,41.0082,28.9784,Rejuvenation,Turkey,location,,
Cairo,30.0444,31.2357,Rejuvenation,Egypt,location,,
Fez,34.0331,-5.0005,Rejuvenation,Morocco,location,,
Marrakech,31.6295,-7.9811,Rejuvenation,Morocco,location,,
Casablanca,33.5731,-7.5898,Rejuvenation,Morocco,location,,
Johannesburg,-26.2041,28.0473,Rejuvenation,South Africa,location,,
Durban,-29.8587,31.0218,Rejuvenation,South Africa,location,,
Maputo,-25.9692,32.5732,Rejuvenation,Mozambique,location,,
Windhoek,-22.5609,17.0658,Rejuvenation,Namibia,location,,
Gaborone,-24.6282,25.9231,Rejuvenation,Botswana,location,,
Harare,-17.8252,31.0335,Rejuvenation,Zimbabwe,location,,
Lusaka,-15.3875,28.3228,Rejuvenation,Zambia,location,,
Luanda,-8.839,13.2894,Rejuvenation,Angola,location,,
Libreville,0.4162,9.4673,Rejuvenation,Gabon,location,,
Lagos,6.5244,3.3792,Rejuvenation,Nigeria,location,,
Accra,5.6037,-0.187,Rejuvenation,Ghana,location,,
Dakar,14.7167,-17.4677,Rejuvenation,Senegal,location,,
Port Louis,-20.1609,57.5012,Rejuvenation,Mauritius,location,,
Victoria,-4.6191,55.4513,Rejuvenation,Seychelles,location,,
Antananarivo,-18.8792,47.5079,Rejuvenation,Madagascar,location,,
Havana,23.1136,-82.3666,Rejuvenation,Cuba,location,,
Santiago,-33.4489,-70.6693,Rejuvenation,Chile,location,,
Belgrade,44.7866,20.4489,Rejuvenation,Serbia,location,,
Sarajevo,43.8563,18.4131,Rejuvenation,Bosnia and Herzegovina,location,,
Zagreb,45.815,15.9819,Rejuvenation,Croatia,location,,
Ljubljana,46.0569,14.5058,Rejuvenation,Slovenia,location,,Capital with strong tourism growth. Pedestrianized center. International hotel brands. Year-round destination. Development stage.
Pristina,42.6629,21.1655,Rejuvenation,Kosovo,location,,
Skopje,41.9973,21.428,Rejuvenation,North Macedonia,location,,
Tirana,41.3275,19.8187,Rejuvenation,Albania,location,,Capital saw 26% visitor growth in Dec 2024. 45% of tourists visit. International hotel brands arriving. Cultural tourism growing. Strong Development stage.
Podgorica,42.4304,19.2594,Rejuvenation,Montenegro,location,,
Belize,17.1899,-88.4976,Development,Belize,country,,"Record 21% tourism growth in 2024 with 562,405 overnight visitors. $250M airport expansion underway. Tourism accounts for 46% of GDP. Strong external investment but infrastructure still developing. Transitioning from Involvement to mature Development."
Ambergris Caye,17.9319,-87.9680,Consolidation,Belize,location,Belize,"Belize's most developed tourism destination with 70+ hotels, mostly foreign-owned. Tourism began in 1970s and now dominates the island. Facing infrastructure strain from success - water/sanitation issues affecting reef. Shows classic Consolidation characteristics."
Caye Caulker,17.7347,-88.0250,Development,Belize,location,Belize,Experiencing rapid tourism growth while maintaining laid-back character. New developments increasing but still preserves authentic Caribbean feel. Infrastructure improving with new ferry services. Mid-Development stage with strong growth trajectory.
Hopkins,16.8166,-88.4000,Involvement,Belize,location,Belize,"Small Garifuna village transitioning to tourism economy. Community-based tourism model with local ownership. Basic facilities emerging, cultural authenticity preserved. Classic Involvement stage characteristics."
Placencia,16.5166,-88.3666,Development,Belize,location,Belize,Major tourism development zone with new resorts and real estate investment. Featured in Belize Tourism Board development plans. Growing rapidly but still building infrastructure. Active Development stage.
San Ignacio,17.1561,-89.0714,Involvement,Belize,location,Belize,Gateway to Mayan ruins and jungle adventures. Local operators dominate tourism services. Tourism season emerging with growing visitor numbers. Infrastructure basic but improving. Involvement stage.
Toledo District,16.2000,-89.0000,Exploration,Belize,location,Belize,Remote southern region with minimal tourism infrastructure. Pristine rainforests and Mayan villages. Attracts adventurous ecotourists. Very limited facilities. True Exploration stage destination.
Maldives,3.2028,73.2207,Consolidation,Maldives,country,,"Welcomed 2.25M tourists in 2025, 9.8% increase. 183 luxury resorts with 45,289 beds. Tourism is primary economic driver. Mature market with global brand presence. Environmental carrying capacity concerns emerging."
Male,4.1755,73.5093,Consolidation,Maldives,location,Maldives,Capital city handles 74% of arrivals through main airport. Fully developed tourism infrastructure. Major hotel chains present. Gateway hub reaching capacity limits. Clear Consolidation characteristics.
Maafushi,3.9408,73.4871,Development,Maldives,location,Maldives,Pioneer local island for guesthouse tourism since 2009 liberalization. Over 50 guesthouses now operating. Rapid development transforming fishing village. Strong Development stage growth.
Thulusdhoo,4.3740,73.6480,Involvement,Maldives,location,Maldives,Emerging surf tourism destination on local island. Small but growing guesthouse sector. Local entrepreneurs beginning tourism services. Early Involvement stage.
Fuvahmulah,0.2995,73.4244,Exploration,Maldives,location,Maldives,Remote southern atoll with unique geography. Emerging diving destination for tiger sharks. Very limited tourist facilities. Adventurous travelers only. Exploration stage.
Malta,35.9375,14.3754,Consolidation,Malta,country,,1.2M tourists in peak year for tiny island nation. UNESCO sites and beach tourism. Major cruise destination. Tourism dominates economy at 27% of GDP. Mature market facing capacity limits.
Valletta,35.8989,14.5146,Consolidation,Malta,location,Malta,UNESCO capital city. Dense tourism development. Cruise passengers overwhelm small streets. Historic sites at capacity. Consolidation stage.
Gozo,36.0440,14.2510,Development,Malta,location,Malta,Quieter sister island with growing tourism. Diving and rural tourism focus. Less developed than Malta. Development stage.
Mdina,35.8867,14.4028,Consolidation,Malta,location,Malta,Ancient walled city limiting visitor numbers. Day-trip destination from Valletta. Preserved but tourist-focused. Consolidation characteristics.
Comino,36.0125,14.3361,Involvement,Malta,location,Malta,"Small island famous for Blue Lagoon. Day trips only, no accommodation. Seasonal overcrowding issues emerging. Involvement stage."
Iceland,64.9631,-19.0208,Development,Iceland,country,,2.3M visitors in 2024 (6x the population). Tourism is 8.5% of GDP. Implementing overtourism measures including surge pricing and conservation fees. Sustainable tourism focus. Development with Consolidation pressures.
Reykjavik,64.1466,-21.9426,Consolidation,Iceland,location,Iceland,Severe overtourism pressures. Airbnb density displacing residents. Tourism-oriented businesses replacing local shops. Government implementing visitor management. Classic Consolidation/Stagnation characteristics.
Blue Lagoon,63.8803,-22.4495,Consolidation,Iceland,location,Iceland,Iceland's most visited attraction with strict visitor quotas. Pre-booking required. Premium pricing strategy. Environmental management intensive. Peak Consolidation.
Akureyri,65.6835,-18.0878,Development,Iceland,location,Iceland,Northern capital growing as alternative to Reykjavik. Cruise ship calls increasing. Tourism infrastructure expanding. Year-round destination strategy. Development stage.
Westfjords,65.9197,-22.3960,Exploration,Iceland,location,Iceland,Remote peninsula with minimal infrastructure. Attracts adventurous travelers seeking isolation. Very limited services. Long travel times. Exploration stage.
Eastfjords,64.9000,-14.0000,Exploration,Iceland,location,Iceland,Least visited region of Iceland. Sparse population and facilities. Emerging hiking and nature tourism. Very early stage development. Exploration characteristics.
Albania,41.1533,20.1683,Development,Albania,country,,"11.7M visitors in 2024, 80% increase vs 2019. One of world's fastest-growing destinations. €2.3B tourism revenue. New Llogara Tunnel improving access. Rapid Development but infrastructure still catching up."
Tirana,41.3275,19.8187,Development,Albania,location,Albania,Capital saw 26% visitor growth in Dec 2024. 45% of tourists visit. International hotel brands arriving. Cultural tourism growing. Strong Development stage.
Sarande,39.8661,20.0050,Development,Albania,location,Albania,Major Riviera destination facing overcrowding. Year-round tourism now. Infrastructure strained by growth. Transitioning toward Consolidation with carrying capacity concerns.
Ksamil,39.7833,20.0000,Involvement,Albania,location,Albania,Beach destination near Greek border. Rapid recent development. Local infrastructure struggling to keep pace. Popular with regional tourists. Late Involvement/early Development.
Berat,40.7058,19.9522,Involvement,Albania,location,Albania,UNESCO World Heritage Ottoman town. Heritage tourism growing steadily. Local guides and guesthouses emerging. Authentic character preserved. Involvement stage.
Gjirokaster,40.0758,20.1389,Involvement,Albania,location,Albania,UNESCO stone city with growing cultural tourism. World Bank heritage tourism investment. Local community engagement increasing. Involvement stage characteristics.
Theth,42.3833,19.7833,Exploration,Albania,location,Albania,"Remote Albanian Alps village. Attracts hikers on Peaks of Balkans trail. Very basic facilities, no paved road access. Adventure travelers only. Exploration stage."
Slovenia,46.1512,14.9955,Development,Slovenia,country,,4M+ visitors annually. Sustainable tourism leader. Ljubljana European Green Capital. Well-developed infrastructure. Strong Development stage.
Ljubljana,46.0569,14.5058,Development,Slovenia,location,Slovenia,Capital with strong tourism growth. Pedestrianized center. International hotel brands. Year-round destination. Development stage.
Lake Bled,46.3683,14.1146,Consolidation,Slovenia,location,Slovenia,Slovenia's most famous destination. Over 1M visitors annually. Overtourism concerns emerging. Visitor management systems in place. Consolidation stage.
Piran,45.5283,13.5681,Development,Slovenia,location,Slovenia,Venetian coastal town. Growing tourism pressure. Cruise day-trippers increasing. Infrastructure adequate. Development stage.
Bovec,46.3381,13.5519,Involvement,Slovenia,location,Slovenia,Adventure tourism hub in Julian Alps. Small but growing sector. Local operators dominant. Involvement stage.
Skocjan Caves,45.6636,14.0011,Involvement,Slovenia,location,Slovenia,UNESCO World Heritage site. Guided tours only with capacity limits. Growing visitor numbers. Involvement/Development transition.
Georgia,42.3154,43.3569,Development,Georgia,country,,7.7M visitors in 2024. Fast-growing destination. Wine tourism and cultural heritage focus. Infrastructure developing rapidly. Development stage.
Tbilisi,41.7151,44.8271,Development,Georgia,location,Georgia,Capital with booming tourism. International hotels arriving. Nightlife and food tourism. Strong growth trajectory. Development stage.
Batumi,41.6168,41.6367,Development,Georgia,location,Georgia,Black Sea resort city. Major casino tourism. High-rise development. Beach tourism dominant. Development stage.
Kazbegi,42.6617,44.6408,Involvement,Georgia,location,Georgia,Mountain destination growing rapidly. Basic infrastructure improving. Adventure tourism focus. Involvement stage.
Svaneti,43.0500,42.9167,Exploration,Georgia,location,Georgia,Remote mountain region. UNESCO towers. Very basic facilities. Adventurous travelers. Exploration stage.
Kakheti,41.6500,45.7500,Involvement,Georgia,location,Georgia,Wine region developing agrotourism. Small guesthouses and wineries. Local entrepreneurship. Involvement stage.
Montenegro,42.7087,19.3744,Development,Montenegro,country,,2.5M visitors annually for small nation. Coastal tourism dominant. Real estate development pressure. Development/Consolidation mix.
Kotor,42.4247,18.7712,Consolidation,Montenegro,location,Montenegro,UNESCO Bay town. Cruise ship overcrowding severe. Resident concerns growing. Carrying capacity reached. Consolidation stage.
Budva,42.2911,18.8403,Consolidation,Montenegro,location,Montenegro,Major beach resort. Dense hotel development. Package tourism dominant. Mature market. Consolidation stage.
Durmitor,43.1500,19.0167,Involvement,Montenegro,location,Montenegro,Mountain national park. Hiking and rafting tourism. Basic facilities. Growing slowly. Involvement stage.
Ulcinj,41.9297,19.2086,Involvement,Montenegro,location,Montenegro,Southern beach town. Less developed than north. Albanian influence. Growing interest. Involvement stage.
Perast,42.4869,18.6983,Development,Montenegro,location,Montenegro,Tiny Bay of Kotor village. Day-trip destination. Very limited capacity. Charming but fragile. Development stage.
Rwanda,1.9403,29.8739,Development,Rwanda,country,,"Tourism 2nd largest forex earner. Gorilla permits $1,500. High-value, low-volume model. Sustainable development focus. Development stage."
Kigali,-1.9706,30.1044,Development,Rwanda,location,Rwanda,"Clean, modern capital. Conference tourism growing. International hotels present. Strong development. Development stage."
Volcanoes National Park,-1.4833,29.5333,Development,Rwanda,location,Rwanda,Famous gorilla trekking. Limited permits protect habitat. High-end lodges. Sustainable model. Development stage.
Nyungwe Forest,-2.4833,29.2500,Involvement,Rwanda,location,Rwanda,Emerging chimp trekking destination. Basic facilities improving. Conservation focus. Involvement stage.
Lake Kivu,-2.0500,29.0000,Involvement,Rwanda,location,Rwanda,Scenic lake with growing tourism. Local guesthouses emerging. Water activities developing. Involvement stage.
